GLOBALSTAR M024 [-]     
1 25883U 99043A   23359.58998713 -.00000130  00000+0 -23116-2 0  9993
2 25883  51.9984 158.1244 0000290 333.7474 104.0265 11.10157175 54939
GLOBALSTAR M027 [-]     
1 25884U 99043B   23359.58824094 -.00000034  00000+0  11308-2 0  9996
2 25884  52.0184 220.8298 0020582 197.3546 162.6545 11.04366701 81627
GLOBALSTAR M054 [-]     
1 25885U 99043C   23359.51579747 -.00000082  00000+0 -28305-3 0  9992
2 25885  52.0151  78.8504 0003802 326.3175 131.4967 11.39202745 57542
GLOBALSTAR M053 [-]     
1 25886U 99043D   23359.44184534 -.00000060  00000+0  25061-3 0  9992
2 25886  52.0012 356.1820 0003298 246.2037 267.9167 11.27652569 58557
GLOBALSTAR M058 [-]     
1 25907U 99049A   23359.48596176 -.00000089  00000+0 -67962-4 0  9994
2 25907  51.9936 110.2819 0001700 319.9673  40.1037 11.93171781477110
GLOBALSTAR M050 [-]     
1 25908U 99049B   23358.65335855 -.00000163  00000+0 -84596-3 0  9992
2 25908  51.9959 160.5627 0009574  42.2432  38.3767 12.07425191 82896
GLOBALSTAR M033 [-]     
1 25909U 99049C   23359.56143118 -.00000052  00000+0  37927-3 0  9995
2 25909  51.9925  67.1768 0011368 240.6543 119.3169 12.20261852102581
GLOBALSTAR M055 [-]     
1 25910U 99049D   23359.57654097 -.00000094  00000+0 -10278-5 0  9990
2 25910  52.0018 104.1390 0007796  94.5565 265.6177 12.29392470101911
